start=new Date('2021-11-01T00:00:00.000Z').valueOf();
sats=[{"MEAN_ANOMALY":"285.2970","MEAN_MOTION_DOT":"0.00003592","NORAD_CAT_ID":"45096","GP_ID":"188605472","MEAN_MOTION_DDOT":"0.0000000000000","EPOCH":"2021-10-31T22:16:18.685056","ARG_OF_PERICENTER":"74.8203","TLE_LINE2":"2 45096  53.0538 183.3487 0001660  74.8203 285.2970 15.06408185 97402","RA_OF_ASC_NODE":"183.3487","ECCENTRICITY":"0.00016600","CLASSIFICATION_TYPE":"U","APOAPSIS":"548.338","COUNTRY_CODE":"US","EPHEMERIS_TYPE":"0","REV_AT_EPOCH":"9740","OBJECT_TYPE":"PAYLOAD","MEAN_ELEMENT_THEORY":"SGP4","SITE":"AFETR","PERIOD":"95.592","OBJECT_ID":"2020-006BE","SEMIMAJOR_AXIS":"6925.323","RCS_SIZE":"LARGE","INCLINATION":"53.0538","BSTAR":"0.00025983000000","PERIAPSIS":"546.039","DECAY_DATE":null,"LAUNCH_DATE":"2020-01-29","REF_FRAME":"TEME","TLE_LINE1":"1 45096U 20006BE  21304.92799404  .00003592  00000-0  25983-3 0  9995","FILE":"3194950","MEAN_MOTION":"15.06408185","TIME_SYSTEM":"UTC","OBJECT_NAME":"STARLINK-1152","ELEMENT_SET_NO":"999","CENTER_NAME":"EARTH"},{"CLASSIFICATION_TYPE":"U","COUNTRY_CODE":"US","EPHEMERIS_TYPE":"0","APOAPSIS":"548.628","REV_AT_EPOCH":"9738","SITE":"AFETR","MEAN_ELEMENT_THEORY":"SGP4","OBJECT_TYPE":"PAYLOAD","MEAN_ANOMALY":"283.0557","MEAN_MOTION_DOT":"0.00004134","GP_ID":"188605716","EPOCH":"2021-10-31T18:38:41.202528","MEAN_MOTION_DDOT":"0.0000000000000","NORAD_CAT_ID":"45098","ARG_OF_PERICENTER":"77.0665","TLE_LINE2":"2 45098  53.0538 184.0222 0002088  77.0665 283.0557 15.06410181 97384","ECCENTRICITY":"0.00020880","RA_OF_ASC_NODE":"184.0222","LAUNCH_DATE":"2020-01-29","TLE_LINE1":"1 45098U 20006BG  21304.77686577  .00004134  00000-0  29622-3 0  9993","REF_FRAME":"TEME","MEAN_MOTION":"15.06410181","FILE":"3194950","ELEMENT_SET_NO":"999","CENTER_NAME":"EARTH","TIME_SYSTEM":"UTC","OBJECT_NAME":"STARLINK-1184","PERIOD":"95.591","OBJECT_ID":"2020-006BG","RCS_SIZE":"LARGE","INCLINATION":"53.0538","SEMIMAJOR_AXIS":"6925.317","BSTAR":"0.00029622000000","PERIAPSIS":"545.736","DECAY_DATE":null},{"ARG_OF_PERICENTER":"73.4519","TLE_LINE2":"2 45099  53.0548 184.1507 0001820  73.4519 286.6670 15.06404553 97385","RA_OF_ASC_NODE":"184.1507","ECCENTRICITY":"0.00018200","MEAN_ANOMALY":"286.6670","MEAN_MOTION_DOT":"0.00002984","NORAD_CAT_ID":"45099","GP_ID":"188603970","MEAN_MOTION_DDOT":"0.0000000000000","EPOCH":"2021-10-31T17:50:55.771584","REV_AT_EPOCH":"9738","OBJECT_TYPE":"PAYLOAD","MEAN_ELEMENT_THEORY":"SGP4","SITE":"AFETR","CLASSIFICATION_TYPE":"U","APOAPSIS":"548.460","COUNTRY_CODE":"US","EPHEMERIS_TYPE":"0","BSTAR":"0.00021912000000","PERIAPSIS":"545.939","DECAY_DATE":null,"PERIOD":"95.592","OBJECT_ID":"2020-006BH","SEMIMAJOR_AXIS":"6925.335","RCS_SIZE":"LARGE","INCLINATION":"53.0548","FILE":"3194950","MEAN_MOTION":"15.06404553","TIME_SYSTEM":"UTC","OBJECT_NAME":"STARLINK-1186","CENTER_NAME":"EARTH","ELEMENT_SET_NO":"999","LAUNCH_DATE":"2020-01-29","REF_FRAME":"TEME","TLE_LINE1":"1 45099U 20006BH  21304.74370106  .00002984  00000-0  21912-3 0  9994"},{"RA_OF_ASC_NODE":"184.0249","ECCENTRICITY":"0.00017510","TLE_LINE2":"2 45100  53.0521 184.0249 0001751  78.1828 281.9357 15.06405978 97381","ARG_OF_PERICENTER":"78.1828","NORAD_CAT_ID":"45100","MEAN_MOTION_DDOT":"0.0000000000000","EPOCH":"2021-10-31T18:33:22.317408","GP_ID":"188604220","MEAN_MOTION_DOT":"0.00002874","MEAN_ANOMALY":"281.9357","OBJECT_TYPE":"PAYLOAD","SITE":"AFETR","MEAN_ELEMENT_THEORY":"SGP4","REV_AT_EPOCH":"9738","APOAPSIS":"548.408","COUNTRY_CODE":"US","EPHEMERIS_TYPE":"0","CLASSIFICATION_TYPE":"U","DECAY_DATE":null,"PERIAPSIS":"545.983","BSTAR":"0.00021174000000","SEMIMAJOR_AXIS":"6925.330","INCLINATION":"53.0521","RCS_SIZE":"LARGE","OBJECT_ID":"2020-006BJ","PERIOD":"95.592","OBJECT_NAME":"STARLINK-1193","TIME_SYSTEM":"UTC","ELEMENT_SET_NO":"999","CENTER_NAME":"EARTH","FILE":"3194950","MEAN_MOTION":"15.06405978","REF_FRAME":"TEME","TLE_LINE1":"1 45100U 20006BJ  21304.77317497  .00002874  00000-0  21174-3 0  9992","LAUNCH_DATE":"2020-01-29"},{"REF_FRAME":"TEME","TLE_LINE1":"1 45101U 20006BK  21304.76949757 -.00001376  00000-0 -73460-4 0  9996","LAUNCH_DATE":"2020-01-29","TIME_SYSTEM":"UTC","OBJECT_NAME":"STARLINK-1194","CENTER_NAME":"EARTH","ELEMENT_SET_NO":"999","FILE":"3194950","MEAN_MOTION":"15.06395175","SEMIMAJOR_AXIS":"6925.363","RCS_SIZE":"LARGE","INCLINATION":"53.0525","PERIOD":"95.592","OBJECT_ID":"2020-006BK","PERIAPSIS":"545.937","DECAY_DATE":null,"BSTAR":"-0.00007346000000","APOAPSIS":"548.519","COUNTRY_CODE":"US","EPHEMERIS_TYPE":"0","CLASSIFICATION_TYPE":"U","OBJECT_TYPE":"PAYLOAD","SITE":"AFETR","MEAN_ELEMENT_THEORY":"SGP4","REV_AT_EPOCH":"9738","NORAD_CAT_ID":"45101","GP_ID":"188604972","MEAN_MOTION_DDOT":"0.0000000000000","EPOCH":"2021-10-31T18:28:04.590048","MEAN_ANOMALY":"289.8713","MEAN_MOTION_DOT":"-0.00001376","RA_OF_ASC_NODE":"184.0403","ECCENTRICITY":"0.00018640","ARG_OF_PERICENTER":"70.2477","TLE_LINE2":"2 45101  53.0525 184.0403 0001864  70.2477 289.8713 15.06395175 97386"},{"MEAN_MOTION":"15.06403717","FILE":"3194950","ELEMENT_SET_NO":"999","CENTER_NAME":"EARTH","TIME_SYSTEM":"UTC","OBJECT_NAME":"STARLINK-1195","LAUNCH_DATE":"2020-01-29","TLE_LINE1":"1 45102U 20006BL  21304.92430352  .00000975  00000-0  84348-4 0  9990","REF_FRAME":"TEME","BSTAR":"0.00008434800000","PERIAPSIS":"545.985","DECAY_DATE":null,"PERIOD":"95.592","OBJECT_ID":"2020-006BL","RCS_SIZE":"LARGE","INCLINATION":"53.0546","SEMIMAJOR_AXIS":"6925.337","REV_AT_EPOCH":"9740","MEAN_ELEMENT_THEORY":"SGP4","SITE":"AFETR","OBJECT_TYPE":"PAYLOAD","CLASSIFICATION_TYPE":"U","EPHEMERIS_TYPE":"0","COUNTRY_CODE":"US","APOAPSIS":"548.420","ARG_OF_PERICENTER":"75.3030","TLE_LINE2":"2 45102  53.0546 183.3634 0001758  75.3030 284.8154 15.06403717 97400","ECCENTRICITY":"0.00017580","RA_OF_ASC_NODE":"183.3634","MEAN_ANOMALY":"284.8154","MEAN_MOTION_DOT":"0.00000975","GP_ID":"188605216","MEAN_MOTION_DDOT":"0.0000000000000","EPOCH":"2021-10-31T22:10:59.824128","NORAD_CAT_ID":"45102"},{"APOAPSIS":"548.410","EPHEMERIS_TYPE":"0","COUNTRY_CODE":"US","CLASSIFICATION_TYPE":"U","OBJECT_TYPE":"PAYLOAD","MEAN_ELEMENT_THEORY":"SGP4","SITE":"AFETR","REV_AT_EPOCH":"9738","NORAD_CAT_ID":"45103","GP_ID":"188604471","MEAN_MOTION_DDOT":"0.0000000000000","EPOCH":"2021-10-31T18:01:32.511072","MEAN_ANOMALY":"279.1014","MEAN_MOTION_DOT":"0.00001112","RA_OF_ASC_NODE":"184.1414","ECCENTRICITY":"0.00017170","ARG_OF_PERICENTER":"81.0169","TLE_LINE2":"2 45103  53.0532 184.1414 0001717  81.0169 279.1014 15.06397741 97381","REF_FRAME":"TEME","TLE_LINE1":"1 45103U 20006BM  21304.75107073  .00001112  00000-0  93519-4 0  9997","LAUNCH_DATE":"2020-01-29","TIME_SYSTEM":"UTC","OBJECT_NAME":"STARLINK-1196","CENTER_NAME":"EARTH","ELEMENT_SET_NO":"999","FILE":"3194950","MEAN_MOTION":"15.06397741","SEMIMAJOR_AXIS":"6925.355","RCS_SIZE":"LARGE","INCLINATION":"53.0532","PERIOD":"95.592","OBJECT_ID":"2020-006BM","PERIAPSIS":"546.031","DECAY_DATE":null,"BSTAR":"0.00009351900000"},{"RA_OF_ASC_NODE":"343.8617","ECCENTRICITY":"0.00015350","TLE_LINE2":"2 45178  53.0544 343.8617 0001535  65.7750 294.3399 15.06405798 95147","ARG_OF_PERICENTER":"65.7750","NORAD_CAT_ID":"45178","EPOCH":"2021-10-31T19:26:27.028320","MEAN_MOTION_DDOT":"0.0000000000000","GP_ID":"188605480","MEAN_MOTION_DOT":"0.00003449","MEAN_ANOMALY":"294.3399","OBJECT_TYPE":"PAYLOAD","SITE":"AFETR","MEAN_ELEMENT_THEORY":"SGP4","REV_AT_EPOCH":"9514","APOAPSIS":"548.259","EPHEMERIS_TYPE":"0","COUNTRY_CODE":"US","CLASSIFICATION_TYPE":"U","DECAY_DATE":null,"PERIAPSIS":"546.133","BSTAR":"0.00025032000000","SEMIMAJOR_AXIS":"6925.331","INCLINATION":"53.0544","RCS_SIZE":"LARGE","OBJECT_ID":"2020-012A","PERIOD":"95.592","OBJECT_NAME":"STARLINK-1138","TIME_SYSTEM":"UTC","ELEMENT_SET_NO":"999","CENTER_NAME":"EARTH","FILE":"3194950","MEAN_MOTION":"15.06405798","REF_FRAME":"TEME","TLE_LINE1":"1 45178U 20012A   21304.81003505  .00003449  00000-0  25032-3 0  9997","LAUNCH_DATE":"2020-02-17"},{"NORAD_CAT_ID":"45179","GP_ID":"188605724","MEAN_MOTION_DDOT":"0.0000000000000","EPOCH":"2021-10-31T19:31:45.968736","MEAN_ANOMALY":"270.1137","MEAN_MOTION_DOT":"0.00001056","RA_OF_ASC_NODE":"343.8640","ECCENTRICITY":"0.00011400","ARG_OF_PERICENTER":"89.9982","TLE_LINE2":"2 45179  53.0544 343.8640 0001140  89.9982 270.1137 15.06401488 95202","APOAPSIS":"547.998","COUNTRY_CODE":"US","EPHEMERIS_TYPE":"0","CLASSIFICATION_TYPE":"U","OBJECT_TYPE":"PAYLOAD","MEAN_ELEMENT_THEORY":"SGP4","SITE":"AFETR","REV_AT_EPOCH":"9520","SEMIMAJOR_AXIS":"6925.344","RCS_SIZE":"LARGE","INCLINATION":"53.0544","PERIOD":"95.592","OBJECT_ID":"2020-012B","PERIAPSIS":"546.420","DECAY_DATE":null,"BSTAR":"0.00008978600000","REF_FRAME":"TEME","TLE_LINE1":"1 45179U 20012B   21304.81372649  .00001056  00000-0  89786-4 0  9995","LAUNCH_DATE":"2020-02-17","TIME_SYSTEM":"UTC","OBJECT_NAME":"STARLINK-1143","ELEMENT_SET_NO":"999","CENTER_NAME":"EARTH","FILE":"3194950","MEAN_MOTION":"15.06401488"},{"APOAPSIS":"548.043","EPHEMERIS_TYPE":"0","COUNTRY_CODE":"US","CLASSIFICATION_TYPE":"U","OBJECT_TYPE":"PAYLOAD","MEAN_ELEMENT_THEORY":"SGP4","SITE":"AFETR","REV_AT_EPOCH":"9520","NORAD_CAT_ID":"45180","MEAN_MOTION_DDOT":"0.0000000000000","EPOCH":"2021-10-31T19:19:47.578656","GP_ID":"188603978","MEAN_MOTION_DOT":"0.00000870","MEAN_ANOMALY":"258.7446","RA_OF_ASC_NODE":"343.9137","ECCENTRICITY":"0.00012030","TLE_LINE2":"2 45180  53.0542 343.9137 0001203 101.3678 258.7446 15.06401289 95209","ARG_OF_PERICENTER":"101.3678","REF_FRAME":"TEME","TLE_LINE1":"1 45180U 20012C   21304.80541179  .00000870  00000-0  77309-4 0  9993","LAUNCH_DATE":"2020-02-17","OBJECT_NAME":"STARLINK-1192","TIME_SYSTEM":"UTC","ELEMENT_SET_NO":"999","CENTER_NAME":"EARTH","FILE":"3194950","MEAN_MOTION":"15.06401289","SEMIMAJOR_AXIS":"6925.345","INCLINATION":"53.0542","RCS_SIZE":"LARGE","OBJECT_ID":"2020-012C","PERIOD":"95.592","DECAY_DATE":null,"PERIAPSIS":"546.376","BSTAR":"0.00007730900000"}];
